{"type": "FeatureCollection", "features": [ {"type": "Feature", "properties": {"norad_id": 46986, "name": "FENGYUN 1C DEB", "group": "fengyun-1c-debris", "lat": 69.28795515073413, "lon": -4.814587889585132, "alt_km": 762.8114074600217, "timestamp": "2025-12-20T03:42:47.683859+00:00", "meta": {"OBJECT_NAME": "FENGYUN 1C DEB", "OBJECT_ID": "1999-025EZL", "EPOCH": "2025-12-18T08:14:14.980416", "MEAN_MOTION": 14.47202038, "ECCENTRICITY": 0.01048793, "INCLINATION": 98.2353, "RA_OF_ASC_NODE": 15.9439, "ARG_OF_PERICENTER": 194.7919, "MEAN_ANOMALY": 165.0199, "EPHEMERIS_TYPE": 0, "CLASSIFICATION_TYPE": "U", "NORAD_CAT_ID": 46986, "ELEMENT_SET_NO": 999, "REV_AT_EPOCH": 63481, "BSTAR": 0.00036299025, "MEAN_MOTION_DOT": 1.373e-05, "MEAN_MOTION_DDOT": 0}, "tle": {"line1": "1 46986U 99025EZL 25352.34322894  .00001373  00000+0  36299-3 0  9995", "line2": "2 46986  98.2353  15.9439 0104879 194.7919 165.0199 14.47202038634819"}}, "geometry": {"type": "Point", "coordinates": [-4.814587889585132, 69.28795515073413]}}, {"type": "Feature", "properties": {"norad_id": 46989, "name": "FENGYUN 1C DEB", "group": "fengyun-1c-debris", "lat": 27.488957472480514, "lon": -19.033156736092895, "alt_km": 1136.354492069353, "timestamp": "2025-12-20T03:42:47.683869+00:00", "meta": {"OBJECT_NAME": "FENGYUN 1C DEB", "OBJECT_ID": "1999-025EZP", "EPOCH": "2025-12-16T05:50:42.467712", "MEAN_MOTION": 13.79351889, "ECCENTRICITY": 0.0241495, "INCLINATION": 99.5079, "RA_OF_ASC_NODE": 152.0361, "ARG_OF_PERICENTER": 327.932, "MEAN_ANOMALY": 213.2299, "EPHEMERIS_TYPE": 0, "CLASSIFICATION_TYPE": "U", "NORAD_CAT_ID": 46989, "ELEMENT_SET_NO": 999, "REV_AT_EPOCH": 71090, "BSTAR": 0.0034367079, "MEAN_MOTION_DOT": 4.346e-05, "MEAN_MOTION_DDOT": 0}, "tle": {"line1": "1 46989U 99025EZP 25350.24354708  .00004346  00000+0  34367-2 0  9990", "line2": "2 46989  99.5079 152.0361 0241495 327.9320 213.2299 13.79351889710905"}}, "geometry": {"type": "Point", "coordinates": [-19.033156736092895, 27.488957472480514]}}, {"type": "Feature", "properties": {"norad_id": 46990, "name": "FENGYUN 1C DEB", "group": "fengyun-1c-debris", "lat": 25.357599606556217, "lon": -166.11330203962848, "alt_km": 559.7242983193428, "timestamp": "2025-12-20T03:42:47.683880+00:00", "meta": {"OBJECT_NAME": "FENGYUN 1C DEB", "OBJECT_ID": "1999-025EZQ", "EPOCH": "2025-12-14T09:50:58.179840", "MEAN_MOTION": 14.23869634, "ECCENTRICITY": 0.03581836, "INCLINATION": 98.2322, "RA_OF_ASC_NODE": 192.4277, "ARG_OF_PERICENTER": 55.4999, "MEAN_ANOMALY": 61.9058, "EPHEMERIS_TYPE": 0, "CLASSIFICATION_TYPE": "U", "NORAD_CAT_ID": 46990, "ELEMENT_SET_NO": 999, "REV_AT_EPOCH": 8553, "BSTAR": 0.002161109, "MEAN_MOTION_DOT": 9.626e-05, "MEAN_MOTION_DDOT": 0}, "tle": {"line1": "1 46990U 99025EZQ 25348.41039560  .00009626  00000+0  21611-2 0  9998", "line2": "2 46990  98.2322 192.4277 0358183  55.4999  61.9058 14.23869634 85533"}}, "geometry": {"type": "Point", "coordinates": [-166.11330203962848, 25.357599606556217]}}, {"type": "Feature", "properties": {"norad_id": 46992, "name": "FENGYUN 1C DEB", "group": "fengyun-1c-debris", "lat": -13.969446445269456, "lon": 158.48315093289233, "alt_km": 864.7379218634514, "timestamp": "2025-12-20T03:42:47.683890+00:00", "meta": {"OBJECT_NAME": "FENGYUN 1C DEB", "OBJECT_ID": "1999-025EZS", "EPOCH": "2025-12-19T18:13:25.190976", "MEAN_MOTION": 14.00708006, "ECCENTRICITY": 0.0072142, "INCLINATION": 98.901, "RA_OF_ASC_NODE": 340.3322, "ARG_OF_PERICENTER": 141.1765, "MEAN_ANOMALY": 219.4614, "EPHEMERIS_TYPE": 0, "CLASSIFICATION_TYPE": "U", "NORAD_CAT_ID": 46992, "ELEMENT_SET_NO": 999, "REV_AT_EPOCH": 61055, "BSTAR": 0.00043038, "MEAN_MOTION_DOT": 6.13e-06, "MEAN_MOTION_DDOT": 0}, "tle": {"line1": "1 46992U 99025EZS 25353.75931934  .00000613  00000+0  43038-3 0  9994", "line2": "2 46992  98.9010 340.3322 0072142 141.1765 219.4614 14.00708006610557"}}, "geometry": {"type": "Point", "coordinates": [158.48315093289233, -13.969446445269456]}}, {"type": "Feature", "properties": {"norad_id": 46993, "name": "FENGYUN 1C DEB", "group": "fengyun-1c-debris", "lat": -79.59838535286264, "lon": 168.6773060955343, "alt_km": 816.5977001739939, "timestamp": "2025-12-20T03:42:47.683900+00:00", "meta": {"OBJECT_NAME": "FENGYUN 1C DEB", "OBJECT_ID": "1999-025EZT", "EPOCH": "2025-12-18T13:48:38.255328", "MEAN_MOTION": 13.69154142, "ECCENTRICITY": 0.02625123, "INCLINATION": 98.7233, "RA_OF_ASC_NODE": 110.4847, "ARG_OF_PERICENTER": 283.8917, "MEAN_ANOMALY": 132.0062, "EPHEMERIS_TYPE": 0, "CLASSIFICATION_TYPE": "U", "NORAD_CAT_ID": 46993, "ELEMENT_SET_NO": 999, "REV_AT_EPOCH": 60337, "BSTAR": 0.00040493614, "MEAN_MOTION_DOT": 4.06e-06, "MEAN_MOTION_DDOT": 0}, "tle": {"line1": "1 46993U 99025EZT 25352.57544277  .00000406  00000+0  40494-3 0  9997", "line2": "2 46993  98.7233 110.4847 0262512 283.8917 132.0062 13.69154142603375"}}, "geometry": {"type": "Point", "coordinates": [168.6773060955343, -79.59838535286264]}}, {"type": "Feature", "properties": {"norad_id": 46995, "name": "FENGYUN 1C DEB", "group": "fengyun-1c-debris", "lat": 3.95577714357047, "lon": 74.96152599279355, "alt_km": 950.5168626175637, "timestamp": "2025-12-20T03:42:47.683910+00:00", "meta": {"OBJECT_NAME": "FENGYUN 1C DEB", "OBJECT_ID": "1999-025EZV", "EPOCH": "2025-12-18T04:55:40.819584", "MEAN_MOTION": 13.86383578, "ECCENTRICITY": 0.01891743, "INCLINATION": 98.5952, "RA_OF_ASC_NODE": 73.7691, "ARG_OF_PERICENTER": 103.3728, "MEAN_ANOMALY": 258.8595, "EPHEMERIS_TYPE": 0, "CLASSIFICATION_TYPE": "U", "NORAD_CAT_ID": 46995, "ELEMENT_SET_NO": 999, "REV_AT_EPOCH": 60544, "BSTAR": 0.001968191, "MEAN_MOTION_DOT": 2.586e-05, "MEAN_MOTION_DDOT": 0}, "tle": {"line1": "1 46995U 99025EZV 25352.20533356  .00002586  00000+0  19682-2 0  9990", "line2": "2 46995  98.5952  73.7691 0189174 103.3728 258.8595 13.86383578605443"}}, "geometry": {"type": "Point", "coordinates": [74.96152599279355, 3.95577714357047]}}, {"type": "Feature", "properties": {"norad_id": 46997, "name": "FENGYUN 1C DEB", "group": "fengyun-1c-debris", "lat": -1.065936898842011, "lon": 34.50725794025754, "alt_km": 788.796807448387, "timestamp": "2025-12-20T03:42:47.683920+00:00", "meta": {"OBJECT_NAME": "FENGYUN 1C DEB", "OBJECT_ID": "1999-025EZX", "EPOCH": "2025-12-14T20:44:05.032032", "MEAN_MOTION": 14.28011803, "ECCENTRICITY": 0.00246638, "INCLINATION": 98.5587, "RA_OF_ASC_NODE": 29.1623, "ARG_OF_PERICENTER": 329.7037, "MEAN_ANOMALY": 205.3871, "EPHEMERIS_TYPE": 0, "CLASSIFICATION_TYPE": "U", "NORAD_CAT_ID": 46997, "ELEMENT_SET_NO": 999, "REV_AT_EPOCH": 62481, "BSTAR": 0.00094694744, "MEAN_MOTION_DOT": 2.314e-05, "MEAN_MOTION_DDOT": 0}, "tle": {"line1": "1 46997U 99025EZX 25348.86394713  .00002314  00000+0  94695-3 0  9998", "line2": "2 46997  98.5587  29.1623 0024663 329.7037 205.3871 14.28011803624819"}}, "geometry": {"type": "Point", "coordinates": [34.50725794025754, -1.065936898842011]}}, {"type": "Feature", "properties": {"norad_id": 47001, "name": "FENGYUN 1C DEB", "group": "fengyun-1c-debris", "lat": -57.31107593549482, "lon": 67.61452380583748, "alt_km": 767.6129812934869, "timestamp": "2025-12-20T03:42:47.683930+00:00", "meta": {"OBJECT_NAME": "FENGYUN 1C DEB", "OBJECT_ID": "1999-025FAB", "EPOCH": "2025-12-15T22:09:16.306560", "MEAN_MOTION": 14.38495721, "ECCENTRICITY": 0.00512528, "INCLINATION": 99.3068, "RA_OF_ASC_NODE": 48.2252, "ARG_OF_PERICENTER": 39.7651, "MEAN_ANOMALY": 320.7273, "EPHEMERIS_TYPE": 0, "CLASSIFICATION_TYPE": "U", "NORAD_CAT_ID": 47001, "ELEMENT_SET_NO": 999, "REV_AT_EPOCH": 73960, "BSTAR": 0.0010268009, "MEAN_MOTION_DOT": 3.136e-05, "MEAN_MOTION_DDOT": 0}, "tle": {"line1": "1 47001U 99025FAB 25349.92310540  .00003136  00000+0  10268-2 0  9995", "line2": "2 47001  99.3068  48.2252 0051252  39.7651 320.7273 14.38495721739601"}}, "geometry": {"type": "Point", "coordinates": [67.61452380583748, -57.31107593549482]}}, {"type": "Feature", "properties": {"norad_id": 47005, "name": "FENGYUN 1C DEB", "group": "fengyun-1c-debris", "lat": 7.774145616574654, "lon": 82.26184829466943, "alt_km": 895.614085099689, "timestamp": "2025-12-20T03:42:47.683941+00:00", "meta": {"OBJECT_NAME": "FENGYUN 1C DEB", "OBJECT_ID": "1999-025FAF", "EPOCH": "2025-12-03T11:49:12.815616", "MEAN_MOTION": 14.10913141, "ECCENTRICITY": 0.00635736, "INCLINATION": 99.6019, "RA_OF_ASC_NODE": 65.7889, "ARG_OF_PERICENTER": 267.3996, "MEAN_ANOMALY": 108.1197, "EPHEMERIS_TYPE": 0, "CLASSIFICATION_TYPE": "U", "NORAD_CAT_ID": 47005, "ELEMENT_SET_NO": 999, "REV_AT_EPOCH": 82637, "BSTAR": 0.0032335345, "MEAN_MOTION_DOT": 5.865e-05, "MEAN_MOTION_DDOT": 0}, "tle": {"line1": "1 47005U 99025FAF 25337.49250944  .00005865  00000+0  32335-2 0  9999", "line2": "2 47005  99.6019  65.7889 0063573 267.3996 108.1197 14.10913141826379"}}, "geometry": {"type": "Point", "coordinates": [82.26184829466943, 7.774145616574654]}}, {"type": "Feature", "properties": {"norad_id": 47007, "name": "FENGYUN 1C DEB", "group": "fengyun-1c-debris", "lat": 46.57185103612736, "lon": 44.12396436490881, "alt_km": 924.6728702172823, "timestamp": "2025-12-20T03:42:47.683951+00:00", "meta": {"OBJECT_NAME": "FENGYUN 1C DEB", "OBJECT_ID": "1999-025FAH", "EPOCH": "2025-12-16T09:44:03.870240", "MEAN_MOTION": 13.97251993, "ECCENTRICITY": 0.02368252, "INCLINATION": 98.2082, "RA_OF_ASC_NODE": 211.9995, "ARG_OF_PERICENTER": 43.4139, "MEAN_ANOMALY": 318.5411, "EPHEMERIS_TYPE": 0, "CLASSIFICATION_TYPE": "U", "NORAD_CAT_ID": 47007, "ELEMENT_SET_NO": 999, "REV_AT_EPOCH": 78900, "BSTAR": 0.0020308596, "MEAN_MOTION_DOT": 3.573e-05, "MEAN_MOTION_DDOT": 0}, "tle": {"line1": "1 47007U 99025FAH 25350.40560035  .00003573  00000+0  20309-2 0  9994", "line2": "2 47007  98.2082 211.9995 0236825  43.4139 318.5411 13.97251993789001"}}, "geometry": {"type": "Point", "coordinates": [44.12396436490881, 46.57185103612736]}}]}